GLOBALSTAR M057 [-]     
1 25943U 99058A   24065.60375940 -.00000055  00000+0  34213-3 0  9991
2 25943  51.9960 237.9873 0003417 115.7063 244.4139 12.24781031109514
GLOBALSTAR M059 [-]     
1 25944U 99058B   24065.65071878 -.00000098  00000+0 -14111-3 0  9993
2 25944  52.0036  34.6885 0000567 104.3164  66.6817 11.99964388106541
GLOBALSTAR M039 [-]     
1 25961U 99062A   24065.80660645 -.00000036  00000+0  37688-3 0  9995
2 25961  51.9822 255.2621 0003347  44.3196 315.7938 12.62283912121094
GLOBALSTAR M034 [-]     
1 25962U 99062B   24065.55316451 -.00000038  00000+0  67598-3 0  9996
2 25962  51.9861 149.5403 0013942 233.4060 229.5832 11.79424068 83092
GLOBALSTAR M029 [-]     
1 25963U 99062C   24065.59173979 -.00000045  00000+0  50586-3 0  9994
2 25963  51.9793 283.2919 0001745 286.1124  88.9713 11.99874684112878
GLOBALSTAR M061 [-]     
1 25964U 99062D   24065.18930477 -.00000077  00000+0  54657-4 0  9993
2 25964  51.9820 328.3084 0005971 157.5418  10.7668 11.76758660 65965
